STARLINK-4391           
1 53189U 22084A   22276.18324702  .00002551  00000+0  20304-3 0  9992
2 53189  97.6556 335.9328 0001782  74.5392 285.6029 15.01277711 11632
STARLINK-4332           
1 53190U 22084B   22276.14645090  .00000428  00000+0  37873-4 0  9997
2 53190  97.6545 335.8840 0001702 133.9502 226.1863 15.01267888 11624
STARLINK-4369           
1 53191U 22084C   22276.17768698  .00001633  00000+0  13170-3 0  9993
2 53191  97.6563 335.9197 0001679  89.5466 270.5950 15.01266011 11626
STARLINK-4375           
1 53192U 22084D   22276.17583408  .00007550  00000+0  59147-3 0  9996
2 53192  97.6556 335.9203 0002079  99.9558 260.1901 15.01281293 11629
STARLINK-4351           
1 53193U 22084E   22276.18138873  .00000721  00000+0  60698-4 0  9997
2 53193  97.6548 335.9336 0001906  90.6389 269.5053 15.01272333 11633
STARLINK-4382           
1 53194U 22084F   22276.17952939  .00001429  00000+0  11577-3 0  9991
2 53194  97.6563 335.9228 0001782  76.2544 283.8879 15.01271714 11622
STARLINK-4404           
1 53195U 22084G   22275.77785300  .00001521  00000+0  12555-3 0  9993
2 53195  97.6550 335.6672 0002051 113.7776 246.3663 15.00463067 11867
STARLINK-4407           
1 53196U 22084H   22275.70950782  .00000476  00000+0  41675-4 0  9999
2 53196  97.6560 335.4604 0001770  86.1004 274.0422 15.01267579 11835
STARLINK-4403           
1 53197U 22084J   22276.17027715  .00000514  00000+0  44588-4 0  9992
2 53197  97.6533 335.9111 0002120  95.5615 264.5851 15.01269226 11624
STARLINK-4385           
1 53198U 22084K   22276.17398242  .00001819  00000+0  14608-3 0  9997
2 53198  97.6544 335.9160 0001984  95.0360 265.1091 15.01280807 11621
STARLINK-4395           
1 53199U 22084L   22276.16842319 -.00004964  00000+0 -38206-3 0  9992
2 53199  97.6545 335.9085 0001836 106.9472 253.1953 15.01270258 11624
STARLINK-4417           
1 53200U 22084M   22275.77222010  .00005487  00000+0  43136-3 0  9998
2 53200  97.6531 335.5184 0002106  91.9930 268.1535 15.01264885 11846
STARLINK-4405           
1 53201U 22084N   22275.76483176  .00000193  00000+0  19588-4 0  9994
2 53201  97.6554 335.5084 0001735 100.0333 260.1087 15.01260465 11188
STARLINK-4411           
1 53202U 22084P   22275.72944704  .00002638  00000+0  21428-3 0  9991
2 53202  97.6561 335.8730 0001673  86.8527 273.2888 15.00458014 11200
STARLINK-4409           
1 53203U 22084Q   22276.16102148 -.00000890  00000+0 -64698-4 0  9996
2 53203  97.6544 335.8998 0002309 135.0412 225.1000 15.01262883 11621
STARLINK-4410           
1 53204U 22084R   22276.16656827  .00001439  00000+0  11657-3 0  9999
2 53204  97.6547 335.9032 0002200 107.8644 252.2820 15.01274632 11625
STARLINK-4397           
1 53205U 22084S   22275.75741377 -.00001768  00000+0 -13306-3 0  9999
2 53205  97.6540 335.4995 0002052 126.7995 233.3417 15.01257073 11189
STARLINK-4408           
1 53206U 22084T   22276.16125905  .00000833  00000+0  69417-4 0  9994
2 53206  97.6537 335.8981 0001835 112.5512 247.5907 15.01279328 11628
STARLINK-4413           
1 53207U 22084U   22275.75555576  .00001744  00000+0  14033-3 0  9995
2 53207  97.6548 335.4981 0001677 112.6226 247.5176 15.01272806 11187
STARLINK-4425           
1 53208U 22084V   22276.16287342  .00000610  00000+0  52046-4 0  9993
2 53208  97.6531 335.9012 0002208 114.1157 246.0298 15.01276984 11620
STARLINK-4423           
1 53209U 22084W   22275.75395439  .00001128  00000+0  92410-4 0  9999
2 53209  97.6537 335.4964 0001925 120.1663 239.9752 15.01265529 11182
STARLINK-4427           
1 53210U 22084X   22275.75926007  .00000982  00000+0  80999-4 0  9998
2 53210  97.6542 335.5021 0001545  97.7868 262.3532 15.01267007 11728
STARLINK-4419           
1 53211U 22084Y   22276.14992100  .00002922  00000+0  23194-3 0  9999
2 53211  97.6550 335.8868 0002210 131.1643 228.9772 15.01273585 11625
STARLINK-4416           
1 53212U 22084Z   22275.75371285 -.00001158  00000+0 -85599-4 0  9991
2 53212  97.6541 335.4975 0001779 120.6555 239.4845 15.01258314 11187
STARLINK-4414           
1 53213U 22084AA  22276.14436010  .00001022  00000+0  84110-4 0  9990
2 53213  97.6542 335.8806 0001427 139.7490 220.3840 15.01260028 11623
STARLINK-4353           
1 53214U 22084AB  22276.15175415  .00000115  00000+0  13558-4 0  9991
2 53214  97.6549 335.8891 0001746 130.0260 230.1118 15.01272050 11623
STARLINK-4335           
1 53215U 22084AC  22275.74260143 -.00001087  00000+0 -80058-4 0  9999
2 53215  97.6545 335.4855 0001839 135.8149 224.3223 15.01262566 11700
STARLINK-4376           
1 53216U 22084AD  22276.14806326 -.00000632  00000+0 -44591-4 0  9991
2 53216  97.6540 335.8851 0001717 131.4639 228.6733 15.01261673 11629
STARLINK-4379           
1 53217U 22084AE  22275.80579881 -.00001765  00000+0 -13289-3 0  9994
2 53217  97.6545 335.5480 0001243 131.0241 229.1090 15.01258949 11195
STARLINK-4384           
1 53218U 22084AF  22276.14620726  .00004238  00000+0  33421-3 0  9994
2 53218  97.6541 335.8832 0001782 135.2723 224.8645 15.01278139 11253
STARLINK-4373           
1 53219U 22084AG  22276.13509591 -.00000857  00000+0 -62115-4 0  9998
2 53219  97.6544 335.8733 0001044 132.2360 227.8953 15.01273878 11252
STARLINK-4363           
1 53220U 22084AH  22276.14064741 -.00000627  00000+0 -44236-4 0  9993
2 53220  97.6536 335.8776 0001175 153.0665 207.0620 15.01277521 11256
STARLINK-4377           
1 53221U 22084AJ  22275.73334550  .00001206  00000+0  98432-4 0  9995
2 53221  97.6528 335.4822 0001219 104.9552 255.1807 15.01270028 11183
STARLINK-4381           
1 53222U 22084AK  22275.73889537 -.00000267  00000+0 -16174-4 0  9997
2 53222  97.6548 335.4828 0001445 142.3695 217.7631 15.01268205 11180
STARLINK-4354           
1 53223U 22084AL  22276.13141208 -.00002059  00000+0 -15578-3 0  9996
2 53223  97.6547 335.8720 0001580  87.8903 272.2502 15.01254149 11242
STARLINK-4356           
1 53224U 22084AM  22276.13694248 -.00000499  00000+0 -34265-4 0  9995
2 53224  97.6549 335.8744 0001066 147.9870 212.1419 15.01266443 11252
STARLINK-4358           
1 53225U 22084AN  22276.12769597  .00009321  00000+0  72923-3 0  9998
2 53225  97.6532 335.8709 0001773  93.2354 266.9073 15.01265775 11240
STARLINK-4359           
1 53226U 22084AP  22275.73172841 -.00000348  00000+0 -22535-4 0  9992
2 53226  97.6537 335.4804 0001345 109.7049 250.4321 15.01262253 11182
STARLINK-4366           
1 53227U 22084AQ  22276.12424258  .00001651  00000+0  13305-3 0  9999
2 53227  97.6557 335.8728 0001502  94.8888 265.2508 15.01272116 11241
STARLINK-4365           
1 53228U 22084AR  22275.72963166  .00001240  00000+0  10116-3 0  9992
2 53228  97.6540 335.4765 0001406 101.1568 258.9815 15.01249961 11186
STARLINK-4367           
1 53229U 22084AS  22276.19064203  .00001321  00000+0  10740-3 0  9992
2 53229  97.6555 335.9365 0001481  94.3401 265.7993 15.01265046 11259
STARLINK-4364           
1 53230U 22084AT  22276.12584749  .00001768  00000+0  14214-3 0  9994
2 53230  97.6539 335.8696 0001674 102.3229 257.8183 15.01273205 11621
STARLINK-4370           
1 53231U 22084AU  22276.18695211  .00003185  00000+0  25232-3 0  9995
2 53231  97.6548 335.9323 0001789  92.4736 267.6693 15.01275181 11258
STARLINK-4371           
1 53232U 22084AV  22276.18879502 -.00000335  00000+0 -21458-4 0  9996
2 53232  97.6564 335.9378 0001612  85.4063 274.7345 15.01270095 11259
STARLINK-4372           
1 53233U 22084AW  22275.78249719  .00001694  00000+0  13933-3 0  9998
2 53233  97.6535 335.5405 0001872  84.4992 275.6445 15.00456238 11191
STARLINK-4368           
1 53234U 22084AX  22276.18348198  .00001592  00000+0  12847-3 0  9995
2 53234  97.6558 335.9351 0001676  91.0352 269.1064 15.01276244 11268
